{"type":"FeatureCollection", "features": [
{"type":"Feature","geometry":{"type":"Polygon","coordinates":[[[37.4981028,55.6061264],[37.5075236,55.5984956],[37.5181147,55.5942553],[37.5881048,55.5774955],[37.59834,55.5760471],[37.6633448,55.5722281],[37.6712993,55.5721548],[37.6846725,55.5748268],[37.7201605,55.5880383],[37.7558046,55.6033402],[37.8000283,55.6278385],[37.8324585,55.6490961],[37.838786,55.6566105],[37.8392609,55.6629442],[37.8294411,55.6900516],[37.8294652,55.6966862],[37.8384955,55.7165747],[37.8415962,55.743021],[37.8430654,55.7718833],[37.8385295,55.8151793],[37.8367607,55.8219368],[37.8281624,55.8296948],[37.7135137,55.8885332],[37.7012798,55.8933548],[37.6904822,55.894601],[37.6628184,55.8954853],[37.6465511,55.8968841],[37.6233748,55.9006142],[37.5880015,55.9098128],[37.5714829,55.9106497],[37.5348062,55.9067408],[37.523472,55.9038302],[37.4921281,55.8900461],[37.4645727,55.882855],[37.4406708,55.8803371],[37.4202919,55.8739746],[37.4087316,55.8690206],[37.3984389,55.8599729],[37.3920161,55.8461748],[37.3962942,55.8339579],[37.388317,55.8080324],[37.3838745,55.8010756],[37.3717121,55.7879586],[37.3700166,55.7826549],[37.3691565,55.750273],[37.3720833,55.7410842],[37.3869134,55.7122197],[37.4093297,55.6944194],[37.4175163,55.6821515],[37.4342888,55.6606464],[37.4981028,55.6061264]]]},"properties":{"id":"MKAD","name":"MKAD inside"}}
]}